[{"OBJECT_NAME":"HXMT (HUIYAN)","OBJECT_ID":"2017-034A","EPOCH":"2026-04-03T06:16:11.166240","MEAN_MOTION":15.17788888,"ECCENTRICITY":0.00311061,"INCLINATION":43.0138,"RA_OF_ASC_NODE":240.0309,"ARG_OF_PERICENTER":28.0079,"MEAN_ANOMALY":332.2436,"EPHEMERIS_TYPE":0,"CLASSIFICATION_TYPE":"U","NORAD_CAT_ID":42758,"ELEMENT_SET_NO":999,"REV_AT_EPOCH":48627,"BSTAR":0.00052998798,"MEAN_MOTION_DOT":0.00010817,"MEAN_MOTION_DDOT":0},{"OBJECT_NAME":"SAOCOM 1A","OBJECT_ID":"2018-076A","EPOCH":"2026-04-02T22:18:09.864576","MEAN_MOTION":14.82144894,"ECCENTRICITY":0.00013445,"INCLINATION":97.8897,"RA_OF_ASC_NODE":280.7601,"ARG_OF_PERICENTER":86.3183,"MEAN_ANOMALY":273.8184,"EPHEMERIS_TYPE":0,"CLASSIFICATION_TYPE":"U","NORAD_CAT_ID":43641,"ELEMENT_SET_NO":999,"REV_AT_EPOCH":40495,"BSTAR":-2.337162e-6,"MEAN_MOTION_DOT":-7.1e-7,"MEAN_MOTION_DDOT":0},{"OBJECT_NAME":"H-2A R/B","OBJECT_ID":"2018-084L","EPOCH":"2026-04-03T04:46:28.036704","MEAN_MOTION":15.42442613,"ECCENTRICITY":0.00233392,"INCLINATION":98.8687,"RA_OF_ASC_NODE":315.8431,"ARG_OF_PERICENTER":298.8704,"MEAN_ANOMALY":61.0196,"EPHEMERIS_TYPE":0,"CLASSIFICATION_TYPE":"U","NORAD_CAT_ID":43682,"ELEMENT_SET_NO":999,"REV_AT_EPOCH":40955,"BSTAR":0.00075492633,"MEAN_MOTION_DOT":0.00032968,"MEAN_MOTION_DDOT":0},{"OBJECT_NAME":"SAOCOM 1B","OBJECT_ID":"2020-059A","EPOCH":"2026-04-03T07:09:14.486976","MEAN_MOTION":14.82149434,"ECCENTRICITY":0.00014829,"INCLINATION":97.8885,"RA_OF_ASC_NODE":280.2201,"ARG_OF_PERICENTER":83.8572,"MEAN_ANOMALY":276.281,"EPHEMERIS_TYPE":0,"CLASSIFICATION_TYPE":"U","NORAD_CAT_ID":46265,"ELEMENT_SET_NO":999,"REV_AT_EPOCH":30239,"BSTAR":0.00010839176,"MEAN_MOTION_DOT":8.11e-6,"MEAN_MOTION_DDOT":0},{"OBJECT_NAME":"CSS (TIANHE)","OBJECT_ID":"2021-035A","EPOCH":"2026-04-03T06:41:02.129568","MEAN_MOTION":15.619243,"ECCENTRICITY":0.00037723,"INCLINATION":41.4675,"RA_OF_ASC_NODE":58.4057,"ARG_OF_PERICENTER":112.9182,"MEAN_ANOMALY":247.2056,"EPHEMERIS_TYPE":0,"CLASSIFICATION_TYPE":"U","NORAD_CAT_ID":48274,"ELEMENT_SET_NO":999,"REV_AT_EPOCH":28145,"BSTAR":0.0003541195,"MEAN_MOTION_DOT":0.00031513,"MEAN_MOTION_DDOT":0},{"OBJECT_NAME":"COSMOS 2550","OBJECT_ID":"2021-056A","EPOCH":"2026-04-01T11:17:21.715008","MEAN_MOTION":15.33839536,"ECCENTRICITY":0.00083284,"INCLINATION":67.1445,"RA_OF_ASC_NODE":331.9738,"ARG_OF_PERICENTER":269.3207,"MEAN_ANOMALY":90.6993,"EPHEMERIS_TYPE":0,"CLASSIFICATION_TYPE":"U","NORAD_CAT_ID":48865,"ELEMENT_SET_NO":999,"REV_AT_EPOCH":26695,"BSTAR":0.00017705072,"MEAN_MOTION_DOT":5.639e-5,"MEAN_MOTION_DDOT":0},{"OBJECT_NAME":"CZ-2C R/B","OBJECT_ID":"2022-058K","EPOCH":"2026-04-02T23:50:45.899520","MEAN_MOTION":15.56162128,"ECCENTRICITY":0.00412092,"INCLINATION":50.188,"RA_OF_ASC_NODE":193.0991,"ARG_OF_PERICENTER":305.185,"MEAN_ANOMALY":54.5265,"EPHEMERIS_TYPE":0,"CLASSIFICATION_TYPE":"U","NORAD_CAT_ID":52794,"ELEMENT_SET_NO":999,"REV_AT_EPOCH":21391,"BSTAR":0.00086704736,"MEAN_MOTION_DOT":0.00064357,"MEAN_MOTION_DDOT":0},{"OBJECT_NAME":"CZ-2C R/B","OBJECT_ID":"2022-132E","EPOCH":"2026-04-02T22:57:29.310336","MEAN_MOTION":15.64206842,"ECCENTRICITY":0.00162294,"INCLINATION":97.2951,"RA_OF_ASC_NODE":97.0516,"ARG_OF_PERICENTER":10.2964,"MEAN_ANOMALY":349.8625,"EPHEMERIS_TYPE":0,"CLASSIFICATION_TYPE":"U","NORAD_CAT_ID":54039,"ELEMENT_SET_NO":999,"REV_AT_EPOCH":19416,"BSTAR":0.00073913508,"MEAN_MOTION_DOT":0.00071067,"MEAN_MOTION_DDOT":0},{"OBJECT_NAME":"GSLV R/B","OBJECT_ID":"2022-138AN","EPOCH":"2026-04-03T06:07:54.482016","MEAN_MOTION":14.96936789,"ECCENTRICITY":0.00237999,"INCLINATION":87.3852,"RA_OF_ASC_NODE":158.1372,"ARG_OF_PERICENTER":65.8364,"MEAN_ANOMALY":294.5352,"EPHEMERIS_TYPE":0,"CLASSIFICATION_TYPE":"U","NORAD_CAT_ID":54149,"ELEMENT_SET_NO":999,"REV_AT_EPOCH":18760,"BSTAR":0.00046317707,"MEAN_MOTION_DOT":5.377e-5,"MEAN_MOTION_DDOT":0},{"OBJECT_NAME":"XRISM","OBJECT_ID":"2023-137A","EPOCH":"2026-04-02T19:23:27.863232","MEAN_MOTION":15.1179277,"ECCENTRICITY":0.00078705,"INCLINATION":31.0012,"RA_OF_ASC_NODE":127.6308,"ARG_OF_PERICENTER":281.45,"MEAN_ANOMALY":78.5255,"EPHEMERIS_TYPE":0,"CLASSIFICATION_TYPE":"U","NORAD_CAT_ID":57800,"ELEMENT_SET_NO":999,"REV_AT_EPOCH":14144,"BSTAR":0.00052045606,"MEAN_MOTION_DOT":9.214e-5,"MEAN_MOTION_DDOT":0},{"OBJECT_NAME":"ACS3","OBJECT_ID":"2024-077B","EPOCH":"2026-04-03T06:10:20.124768","MEAN_MOTION":13.90815069,"ECCENTRICITY":0.00733036,"INCLINATION":97.1956,"RA_OF_ASC_NODE":28.8477,"ARG_OF_PERICENTER":21.0974,"MEAN_ANOMALY":339.3187,"EPHEMERIS_TYPE":0,"CLASSIFICATION_TYPE":"U","NORAD_CAT_ID":59588,"ELEMENT_SET_NO":999,"REV_AT_EPOCH":9761,"BSTAR":0.022507953,"MEAN_MOTION_DOT":0.00028837,"MEAN_MOTION_DDOT":0},{"OBJECT_NAME":"HTV-X1","OBJECT_ID":"2025-241A","EPOCH":"2026-04-03T05:38:32.920800","MEAN_MOTION":15.32512226,"ECCENTRICITY":0.00072787,"INCLINATION":51.6362,"RA_OF_ASC_NODE":314.7548,"ARG_OF_PERICENTER":267.5183,"MEAN_ANOMALY":92.4966,"EPHEMERIS_TYPE":0,"CLASSIFICATION_TYPE":"U","NORAD_CAT_ID":66174,"ELEMENT_SET_NO":999,"REV_AT_EPOCH":2470,"BSTAR":0.00016087195,"MEAN_MOTION_DOT":4.76e-5,"MEAN_MOTION_DDOT":0},{"OBJECT_NAME":"SZ-21 MODULE","OBJECT_ID":"2025-246C","EPOCH":"2026-04-03T06:04:09.839424","MEAN_MOTION":15.70567905,"ECCENTRICITY":0.00028919,"INCLINATION":41.4748,"RA_OF_ASC_NODE":51.9348,"ARG_OF_PERICENTER":225.3271,"MEAN_ANOMALY":134.7336,"EPHEMERIS_TYPE":0,"CLASSIFICATION_TYPE":"U","NORAD_CAT_ID":66515,"ELEMENT_SET_NO":999,"REV_AT_EPOCH":2193,"BSTAR":0.00047388464,"MEAN_MOTION_DOT":0.00060256,"MEAN_MOTION_DDOT":0}]
